[{"OBJECT_NAME":"TERRASAR-X","OBJECT_ID":"2007-026A","EPOCH":"2026-03-14T12:56:09.892896","MEAN_MOTION":15.19147382,"ECCENTRICITY":0.00018394,"INCLINATION":97.4465,"RA_OF_ASC_NODE":82.5928,"ARG_OF_PERICENTER":80.8685,"MEAN_ANOMALY":279.2758,"EPHEMERIS_TYPE":0,"CLASSIFICATION_TYPE":"U","NORAD_CAT_ID":31698,"ELEMENT_SET_NO":999,"REV_AT_EPOCH":3885,"BSTAR":5.3827202e-5,"MEAN_MOTION_DOT":1.063e-5,"MEAN_MOTION_DDOT":0},{"OBJECT_NAME":"WORLDVIEW-1 (WV-1)","OBJECT_ID":"2007-041A","EPOCH":"2026-03-15T06:45:54.408672","MEAN_MOTION":15.23720018,"ECCENTRICITY":0.00031327,"INCLINATION":97.3811,"RA_OF_ASC_NODE":195.3797,"ARG_OF_PERICENTER":50.2467,"MEAN_ANOMALY":309.9046,"EPHEMERIS_TYPE":0,"CLASSIFICATION_TYPE":"U","NORAD_CAT_ID":32060,"ELEMENT_SET_NO":999,"REV_AT_EPOCH":2857,"BSTAR":0.00037601119,"MEAN_MOTION_DOT":8.966e-5,"MEAN_MOTION_DDOT":0},{"OBJECT_NAME":"YAOGAN-3","OBJECT_ID":"2007-055A","EPOCH":"2026-03-15T06:45:24.139296","MEAN_MOTION":14.90395445,"ECCENTRICITY":0.00015725,"INCLINATION":97.827,"RA_OF_ASC_NODE":105.0652,"ARG_OF_PERICENTER":82.2684,"MEAN_ANOMALY":277.8713,"EPHEMERIS_TYPE":0,"CLASSIFICATION_TYPE":"U","NORAD_CAT_ID":32289,"ELEMENT_SET_NO":999,"REV_AT_EPOCH":99187,"BSTAR":0.00040200966,"MEAN_MOTION_DOT":3.86e-5,"MEAN_MOTION_DDOT":0},{"OBJECT_NAME":"COSMO-SKYMED 2","OBJECT_ID":"2007-059A","EPOCH":"2026-03-15T07:42:49.048992","MEAN_MOTION":14.82150761,"ECCENTRICITY":0.00013267,"INCLINATION":97.8868,"RA_OF_ASC_NODE":259.276,"ARG_OF_PERICENTER":84.5698,"MEAN_ANOMALY":275.5667,"EPHEMERIS_TYPE":0,"CLASSIFICATION_TYPE":"U","NORAD_CAT_ID":32376,"ELEMENT_SET_NO":999,"REV_AT_EPOCH":98809,"BSTAR":7.6234108e-5,"MEAN_MOTION_DOT":5.55e-6,"MEAN_MOTION_DDOT":0},{"OBJECT_NAME":"RADARSAT-2","OBJECT_ID":"2007-061A","EPOCH":"2026-03-15T06:38:38.429952","MEAN_MOTION":14.29981642,"ECCENTRICITY":0.00012341,"INCLINATION":98.582,"RA_OF_ASC_NODE":82.5395,"ARG_OF_PERICENTER":82.4465,"MEAN_ANOMALY":277.6858,"EPHEMERIS_TYPE":0,"CLASSIFICATION_TYPE":"U","NORAD_CAT_ID":32382,"ELEMENT_SET_NO":999,"REV_AT_EPOCH":95253,"BSTAR":0.00015600352,"MEAN_MOTION_DOT":3.59e-6,"MEAN_MOTION_DDOT":0},{"OBJECT_NAME":"CARTOSAT-2A","OBJECT_ID":"2008-021A","EPOCH":"2026-03-15T06:55:25.482432","MEAN_MOTION":14.79111886,"ECCENTRICITY":0.0013135,"INCLINATION":97.777,"RA_OF_ASC_NODE":126.1547,"ARG_OF_PERICENTER":60.1514,"MEAN_ANOMALY":300.1001,"EPHEMERIS_TYPE":0,"CLASSIFICATION_TYPE":"U","NORAD_CAT_ID":32783,"ELEMENT_SET_NO":999,"REV_AT_EPOCH":96492,"BSTAR":0.00011300432,"MEAN_MOTION_DOT":7.88e-6,"MEAN_MOTION_DDOT":0},{"OBJECT_NAME":"HUANJING 1A (HJ-1A)","OBJECT_ID":"2008-041A","EPOCH":"2026-03-15T07:12:11.098944","MEAN_MOTION":14.83740671,"ECCENTRICITY":0.00207088,"INCLINATION":97.6638,"RA_OF_ASC_NODE":63.8126,"ARG_OF_PERICENTER":86.508,"MEAN_ANOMALY":273.8503,"EPHEMERIS_TYPE":0,"CLASSIFICATION_TYPE":"U","NORAD_CAT_ID":33320,"ELEMENT_SET_NO":999,"REV_AT_EPOCH":94448,"BSTAR":0.00018875792,"MEAN_MOTION_DOT":1.516e-5,"MEAN_MOTION_DDOT":0},{"OBJECT_NAME":"HUANJING 1B (HJ-1B)","OBJECT_ID":"2008-041B","EPOCH":"2026-03-15T07:05:56.044320","MEAN_MOTION":14.83120828,"ECCENTRICITY":0.00375271,"INCLINATION":97.6487,"RA_OF_ASC_NODE":67.256,"ARG_OF_PERICENTER":129.751,"MEAN_ANOMALY":230.702,"EPHEMERIS_TYPE":0,"CLASSIFICATION_TYPE":"U","NORAD_CAT_ID":33321,"ELEMENT_SET_NO":999,"REV_AT_EPOCH":94449,"BSTAR":0.00019298705,"MEAN_MOTION_DOT":1.54e-5,"MEAN_MOTION_DDOT":0},{"OBJECT_NAME":"GEOEYE 1","OBJECT_ID":"2008-042A","EPOCH":"2026-03-15T06:54:51.967008","MEAN_MOTION":14.64774678,"ECCENTRICITY":0.00036025,"INCLINATION":98.1197,"RA_OF_ASC_NODE":149.403,"ARG_OF_PERICENTER":12.5104,"MEAN_ANOMALY":347.6187,"EPHEMERIS_TYPE":0,"CLASSIFICATION_TYPE":"U","NORAD_CAT_ID":33331,"ELEMENT_SET_NO":999,"REV_AT_EPOCH":93640,"BSTAR":0.00010765462,"MEAN_MOTION_DOT":5.26e-6,"MEAN_MOTION_DDOT":0},{"OBJECT_NAME":"THEOS","OBJECT_ID":"2008-049A","EPOCH":"2026-03-15T07:58:59.248416","MEAN_MOTION":14.20118177,"ECCENTRICITY":0.00010797,"INCLINATION":98.5694,"RA_OF_ASC_NODE":134.619,"ARG_OF_PERICENTER":91.3076,"MEAN_ANOMALY":268.8225,"EPHEMERIS_TYPE":0,"CLASSIFICATION_TYPE":"U","NORAD_CAT_ID":33396,"ELEMENT_SET_NO":999,"REV_AT_EPOCH":90464,"BSTAR":1.7781987e-5,"MEAN_MOTION_DOT":-5.0e-8,"MEAN_MOTION_DDOT":0},{"OBJECT_NAME":"COSMO-SKYMED 3","OBJECT_ID":"2008-054A","EPOCH":"2026-03-15T07:11:42.110880","MEAN_MOTION":15.06294912,"ECCENTRICITY":0.00148088,"INCLINATION":97.8409,"RA_OF_ASC_NODE":291.2852,"ARG_OF_PERICENTER":221.4967,"MEAN_ANOMALY":138.5136,"EPHEMERIS_TYPE":0,"CLASSIFICATION_TYPE":"U","NORAD_CAT_ID":33412,"ELEMENT_SET_NO":999,"REV_AT_EPOCH":94280,"BSTAR":0.0002062002,"MEAN_MOTION_DOT":2.97e-5,"MEAN_MOTION_DDOT":0},{"OBJECT_NAME":"YAOGAN-4","OBJECT_ID":"2008-061A","EPOCH":"2026-03-15T06:03:55.635264","MEAN_MOTION":14.82996576,"ECCENTRICITY":0.00149528,"INCLINATION":97.925,"RA_OF_ASC_NODE":8.5017,"ARG_OF_PERICENTER":22.2726,"MEAN_ANOMALY":337.9134,"EPHEMERIS_TYPE":0,"CLASSIFICATION_TYPE":"U","NORAD_CAT_ID":33446,"ELEMENT_SET_NO":999,"REV_AT_EPOCH":93174,"BSTAR":0.00018025606,"MEAN_MOTION_DOT":1.413e-5,"MEAN_MOTION_DDOT":0},{"OBJECT_NAME":"GOSAT (IBUKI)","OBJECT_ID":"2009-002A","EPOCH":"2026-03-13T06:35:09.082752","MEAN_MOTION":14.67545339,"ECCENTRICITY":0.0001121,"INCLINATION":98.0769,"RA_OF_ASC_NODE":184.6184,"ARG_OF_PERICENTER":83.0514,"MEAN_ANOMALY":277.0818,"EPHEMERIS_TYPE":0,"CLASSIFICATION_TYPE":"U","NORAD_CAT_ID":33492,"ELEMENT_SET_NO":999,"REV_AT_EPOCH":91739,"BSTAR":5.959863e-5,"MEAN_MOTION_DOT":2.9e-6,"MEAN_MOTION_DDOT":0},{"OBJECT_NAME":"DEIMOS-1","OBJECT_ID":"2009-041A","EPOCH":"2026-03-15T07:27:07.268256","MEAN_MOTION":14.75125921,"ECCENTRICITY":0.00024873,"INCLINATION":97.7265,"RA_OF_ASC_NODE":235.6703,"ARG_OF_PERICENTER":109.4956,"MEAN_ANOMALY":250.6522,"EPHEMERIS_TYPE":0,"CLASSIFICATION_TYPE":"U","NORAD_CAT_ID":35681,"ELEMENT_SET_NO":999,"REV_AT_EPOCH":89304,"BSTAR":0.00012805063,"MEAN_MOTION_DOT":8.16e-6,"MEAN_MOTION_DDOT":0},{"OBJECT_NAME":"DUBAISAT-1","OBJECT_ID":"2009-041B","EPOCH":"2026-03-15T06:31:16.297824","MEAN_MOTION":14.74923537,"ECCENTRICITY":0.00107169,"INCLINATION":97.9882,"RA_OF_ASC_NODE":208.6507,"ARG_OF_PERICENTER":19.4046,"MEAN_ANOMALY":340.7569,"EPHEMERIS_TYPE":0,"CLASSIFICATION_TYPE":"U","NORAD_CAT_ID":35682,"ELEMENT_SET_NO":999,"REV_AT_EPOCH":89125,"BSTAR":0.00019698456,"MEAN_MOTION_DOT":1.273e-5,"MEAN_MOTION_DDOT":0},{"OBJECT_NAME":"OCEANSAT-2","OBJECT_ID":"2009-051A","EPOCH":"2026-03-15T06:23:53.775168","MEAN_MOTION":13.99641862,"ECCENTRICITY":0.00174879,"INCLINATION":98.2283,"RA_OF_ASC_NODE":70.5173,"ARG_OF_PERICENTER":135.8017,"MEAN_ANOMALY":224.455,"EPHEMERIS_TYPE":0,"CLASSIFICATION_TYPE":"U","NORAD_CAT_ID":35931,"ELEMENT_SET_NO":999,"REV_AT_EPOCH":86619,"BSTAR":0.00029312002,"MEAN_MOTION_DOT":3.92e-6,"MEAN_MOTION_DDOT":0}]
