TERRASAR-X              
1 31698U 07026A   26073.53900339  .00001063  00000+0  53827-4 0  9990
2 31698  97.4465  82.5928 0001839  80.8685 279.2758 15.19147382 38859
WORLDVIEW-1 (WV-1)      
1 32060U 07041A   26074.28187973  .00008966  00000+0  37601-3 0  9995
2 32060  97.3811 195.3797 0003132  50.2467 309.9046 15.23720018 28578
YAOGAN-3                
1 32289U 07055A   26074.28152939  .00003860  00000+0  40201-3 0  9995
2 32289  97.8270 105.0652 0001572  82.2684 277.8713 14.90395445991876
COSMO-SKYMED 2          
1 32376U 07059A   26074.32140103  .00000555  00000+0  76234-4 0  9995
2 32376  97.8868 259.2760 0001326  84.5698 275.5667 14.82150761988099
RADARSAT-2              
1 32382U 07061A   26074.27683368  .00000359  00000+0  15600-3 0  9995
2 32382  98.5820  82.5395 0001234  82.4465 277.6858 14.29981642952536
CARTOSAT-2A             
1 32783U 08021A   26074.28848938  .00000788  00000+0  11300-3 0  9993
2 32783  97.7770 126.1547 0013135  60.1514 300.1001 14.79111886964929
HUANJING 1A (HJ-1A)     
1 33320U 08041A   26074.30012846  .00001516  00000+0  18876-3 0  9992
2 33320  97.6638  63.8126 0020708  86.5080 273.8503 14.83740671944480
HUANJING 1B (HJ-1B)     
1 33321U 08041B   26074.29578755  .00001540  00000+0  19299-3 0  9994
2 33321  97.6487  67.2560 0037527 129.7510 230.7020 14.83120828944491
GEOEYE 1                
1 33331U 08042A   26074.28810147  .00000526  00000+0  10765-3 0  9991
2 33331  98.1197 149.4030 0003602  12.5104 347.6187 14.64774678936407
THEOS                   
1 33396U 08049A   26074.33263019 -.00000005  00000+0  17782-4 0  9995
2 33396  98.5694 134.6190 0001079  91.3076 268.8225 14.20118177904642
COSMO-SKYMED 3          
1 33412U 08054A   26074.29979295  .00002970  00000+0  20620-3 0  9991
2 33412  97.8409 291.2852 0014808 221.4967 138.5136 15.06294912942802
YAOGAN-4                
1 33446U 08061A   26074.25272726  .00001413  00000+0  18026-3 0  9995
2 33446  97.9250   8.5017 0014952  22.2726 337.9134 14.82996576931748
GOSAT (IBUKI)           
1 33492U 09002A   26072.27441068  .00000290  00000+0  59599-4 0  9992
2 33492  98.0769 184.6184 0001121  83.0514 277.0818 14.67545339917399
DEIMOS-1                
1 35681U 09041A   26074.31050079  .00000816  00000+0  12805-3 0  9994
2 35681  97.7265 235.6703 0002487 109.4956 250.6522 14.75125921893045
DUBAISAT-1              
1 35682U 09041B   26074.27171641  .00001273  00000+0  19698-3 0  9994
2 35682  97.9882 208.6507 0010716  19.4046 340.7569 14.74923537891250
OCEANSAT-2              
1 35931U 09051A   26074.26659462  .00000392  00000+0  29312-3 0  9998
2 35931  98.2283  70.5173 0017487 135.8017 224.4550 13.99641862866191
